[{"OBJECT_NAME":"NOAA 1","OBJECT_ID":"1970-106A","EPOCH":"2026-03-02T17:17:06.941472","MEAN_MOTION":12.54049098,"ECCENTRICITY":0.0031668,"INCLINATION":101.3528,"RA_OF_ASC_NODE":101.0441,"ARG_OF_PERICENTER":194.5103,"MEAN_ANOMALY":283.7249,"EPHEMERIS_TYPE":0,"CLASSIFICATION_TYPE":"U","NORAD_CAT_ID":4793,"ELEMENT_SET_NO":999,"REV_AT_EPOCH":52734,"BSTAR":0.00011852,"MEAN_MOTION_DOT":-2.4e-7,"MEAN_MOTION_DDOT":0},{"OBJECT_NAME":"NOAA 2 (ITOS-D)","OBJECT_ID":"1972-082A","EPOCH":"2026-03-02T15:24:53.652096","MEAN_MOTION":12.53211578,"ECCENTRICITY":0.0004022,"INCLINATION":102.0168,"RA_OF_ASC_NODE":79.0153,"ARG_OF_PERICENTER":18.7061,"MEAN_ANOMALY":90.9417,"EPHEMERIS_TYPE":0,"CLASSIFICATION_TYPE":"U","NORAD_CAT_ID":6235,"ELEMENT_SET_NO":999,"REV_AT_EPOCH":44160,"BSTAR":0.00014224,"MEAN_MOTION_DOT":-2.4e-7,"MEAN_MOTION_DDOT":0},{"OBJECT_NAME":"NOAA 3","OBJECT_ID":"1973-086A","EPOCH":"2026-03-02T15:59:06.395136","MEAN_MOTION":12.40391537,"ECCENTRICITY":0.0006187,"INCLINATION":102.291,"RA_OF_ASC_NODE":74.5761,"ARG_OF_PERICENTER":322.2471,"MEAN_ANOMALY":149.6114,"EPHEMERIS_TYPE":0,"CLASSIFICATION_TYPE":"U","NORAD_CAT_ID":6920,"ELEMENT_SET_NO":999,"REV_AT_EPOCH":36869,"BSTAR":0.00011072,"MEAN_MOTION_DOT":-3.2e-7,"MEAN_MOTION_DDOT":0},{"OBJECT_NAME":"NOAA 4","OBJECT_ID":"1974-089A","EPOCH":"2026-03-02T14:56:16.503936","MEAN_MOTION":12.53201519,"ECCENTRICITY":0.0009178,"INCLINATION":102.0074,"RA_OF_ASC_NODE":73.278,"ARG_OF_PERICENTER":42.1258,"MEAN_ANOMALY":69.9652,"EPHEMERIS_TYPE":0,"CLASSIFICATION_TYPE":"U","NORAD_CAT_ID":7529,"ELEMENT_SET_NO":999,"REV_AT_EPOCH":34617,"BSTAR":9.9313e-5,"MEAN_MOTION_DOT":-3.1e-7,"MEAN_MOTION_DDOT":0},{"OBJECT_NAME":"NOAA 5","OBJECT_ID":"1976-077A","EPOCH":"2026-03-02T19:25:33.132864","MEAN_MOTION":12.37828186,"ECCENTRICITY":0.0009762,"INCLINATION":102.2949,"RA_OF_ASC_NODE":47.2804,"ARG_OF_PERICENTER":173.1609,"MEAN_ANOMALY":250.0199,"EPHEMERIS_TYPE":0,"CLASSIFICATION_TYPE":"U","NORAD_CAT_ID":9057,"ELEMENT_SET_NO":999,"REV_AT_EPOCH":24131,"BSTAR":0.00010661,"MEAN_MOTION_DOT":-3.2e-7,"MEAN_MOTION_DDOT":0},{"OBJECT_NAME":"TIROS N","OBJECT_ID":"1978-096A","EPOCH":"2026-03-02T16:35:49.939872","MEAN_MOTION":14.19334684,"ECCENTRICITY":0.0010346,"INCLINATION":98.4642,"RA_OF_ASC_NODE":87.5217,"ARG_OF_PERICENTER":184.9532,"MEAN_ANOMALY":175.1544,"EPHEMERIS_TYPE":0,"CLASSIFICATION_TYPE":"U","NORAD_CAT_ID":11060,"ELEMENT_SET_NO":999,"REV_AT_EPOCH":66364,"BSTAR":0.00011531,"MEAN_MOTION_DOT":2.01e-6,"MEAN_MOTION_DDOT":0},{"OBJECT_NAME":"NOAA 6","OBJECT_ID":"1979-057A","EPOCH":"2026-03-02T15:37:01.947072","MEAN_MOTION":14.35427276,"ECCENTRICITY":0.0009343,"INCLINATION":98.5761,"RA_OF_ASC_NODE":91.8467,"ARG_OF_PERICENTER":208.201,"MEAN_ANOMALY":151.867,"EPHEMERIS_TYPE":0,"CLASSIFICATION_TYPE":"U","NORAD_CAT_ID":11416,"ELEMENT_SET_NO":999,"REV_AT_EPOCH":43567,"BSTAR":0.0001497,"MEAN_MOTION_DOT":3.86e-6,"MEAN_MOTION_DDOT":0},{"OBJECT_NAME":"NOAA 7","OBJECT_ID":"1981-059A","EPOCH":"2026-03-02T17:52:50.870208","MEAN_MOTION":14.17771523,"ECCENTRICITY":0.0010986,"INCLINATION":98.8075,"RA_OF_ASC_NODE":129.8545,"ARG_OF_PERICENTER":207.9195,"MEAN_ANOMALY":152.1391,"EPHEMERIS_TYPE":0,"CLASSIFICATION_TYPE":"U","NORAD_CAT_ID":12553,"ELEMENT_SET_NO":999,"REV_AT_EPOCH":30966,"BSTAR":4.8017e-5,"MEAN_MOTION_DOT":5.4e-7,"MEAN_MOTION_DDOT":0},{"OBJECT_NAME":"NOAA 8","OBJECT_ID":"1983-022A","EPOCH":"2026-03-02T15:01:42.845376","MEAN_MOTION":14.29763543,"ECCENTRICITY":0.001428,"INCLINATION":98.7373,"RA_OF_ASC_NODE":74.4003,"ARG_OF_PERICENTER":206.5656,"MEAN_ANOMALY":153.4796,"EPHEMERIS_TYPE":0,"CLASSIFICATION_TYPE":"U","NORAD_CAT_ID":13923,"ELEMENT_SET_NO":999,"REV_AT_EPOCH":23584,"BSTAR":9.1647e-5,"MEAN_MOTION_DOT":1.91e-6,"MEAN_MOTION_DDOT":0},{"OBJECT_NAME":"NOAA 9","OBJECT_ID":"1984-123A","EPOCH":"2026-03-02T15:57:33.526368","MEAN_MOTION":14.17036131,"ECCENTRICITY":0.0013711,"INCLINATION":99.1103,"RA_OF_ASC_NODE":85.7815,"ARG_OF_PERICENTER":293.0428,"MEAN_ANOMALY":175.855,"EPHEMERIS_TYPE":0,"CLASSIFICATION_TYPE":"U","NORAD_CAT_ID":15427,"ELEMENT_SET_NO":999,"REV_AT_EPOCH":12833,"BSTAR":9.1673e-5,"MEAN_MOTION_DOT":1.38e-6,"MEAN_MOTION_DDOT":0},{"OBJECT_NAME":"NOAA 10","OBJECT_ID":"1986-073A","EPOCH":"2026-03-02T19:46:48.809856","MEAN_MOTION":14.29140704,"ECCENTRICITY":0.0011227,"INCLINATION":98.6994,"RA_OF_ASC_NODE":55.2309,"ARG_OF_PERICENTER":311.0664,"MEAN_ANOMALY":118.3278,"EPHEMERIS_TYPE":0,"CLASSIFICATION_TYPE":"U","NORAD_CAT_ID":16969,"ELEMENT_SET_NO":999,"REV_AT_EPOCH":5422,"BSTAR":9.641e-5,"MEAN_MOTION_DOT":2.0e-6,"MEAN_MOTION_DDOT":0},{"OBJECT_NAME":"NOAA 11","OBJECT_ID":"1988-089A","EPOCH":"2026-03-02T18:57:50.984352","MEAN_MOTION":14.15818944,"ECCENTRICITY":0.001003,"INCLINATION":98.6087,"RA_OF_ASC_NODE":11.0636,"ARG_OF_PERICENTER":241.0552,"MEAN_ANOMALY":118.9617,"EPHEMERIS_TYPE":0,"CLASSIFICATION_TYPE":"U","NORAD_CAT_ID":19531,"ELEMENT_SET_NO":999,"REV_AT_EPOCH":93242,"BSTAR":5.5757e-5,"MEAN_MOTION_DOT":6.7e-7,"MEAN_MOTION_DDOT":0},{"OBJECT_NAME":"NOAA 12","OBJECT_ID":"1991-032A","EPOCH":"2026-03-02T19:27:07.300224","MEAN_MOTION":14.26714758,"ECCENTRICITY":0.0013315,"INCLINATION":98.6144,"RA_OF_ASC_NODE":51.9192,"ARG_OF_PERICENTER":344.0473,"MEAN_ANOMALY":16.0286,"EPHEMERIS_TYPE":0,"CLASSIFICATION_TYPE":"U","NORAD_CAT_ID":21263,"ELEMENT_SET_NO":999,"REV_AT_EPOCH":80979,"BSTAR":7.9934e-5,"MEAN_MOTION_DOT":1.5e-6,"MEAN_MOTION_DDOT":0},{"OBJECT_NAME":"NOAA 13","OBJECT_ID":"1993-050A","EPOCH":"2026-03-02T20:31:04.535040","MEAN_MOTION":14.13633628,"ECCENTRICITY":0.0010559,"INCLINATION":98.6924,"RA_OF_ASC_NODE":9.7931,"ARG_OF_PERICENTER":74.5748,"MEAN_ANOMALY":285.6591,"EPHEMERIS_TYPE":0,"CLASSIFICATION_TYPE":"U","NORAD_CAT_ID":22739,"ELEMENT_SET_NO":999,"REV_AT_EPOCH":67835,"BSTAR":9.7607e-5,"MEAN_MOTION_DOT":1.42e-6,"MEAN_MOTION_DDOT":0},{"OBJECT_NAME":"NOAA 14","OBJECT_ID":"1994-089A","EPOCH":"2026-03-02T19:42:47.836800","MEAN_MOTION":14.14653318,"ECCENTRICITY":0.0010148,"INCLINATION":98.5009,"RA_OF_ASC_NODE":36.363,"ARG_OF_PERICENTER":35.1436,"MEAN_ANOMALY":325.0405,"EPHEMERIS_TYPE":0,"CLASSIFICATION_TYPE":"U","NORAD_CAT_ID":23455,"ELEMENT_SET_NO":999,"REV_AT_EPOCH":60816,"BSTAR":6.5973e-5,"MEAN_MOTION_DOT":8.6e-7,"MEAN_MOTION_DDOT":0},{"OBJECT_NAME":"NOAA 15","OBJECT_ID":"1998-030A","EPOCH":"2026-03-02T18:11:00.453696","MEAN_MOTION":14.27109245,"ECCENTRICITY":0.000922,"INCLINATION":98.5168,"RA_OF_ASC_NODE":85.2199,"ARG_OF_PERICENTER":302.872,"MEAN_ANOMALY":57.1573,"EPHEMERIS_TYPE":0,"CLASSIFICATION_TYPE":"U","NORAD_CAT_ID":25338,"ELEMENT_SET_NO":999,"REV_AT_EPOCH":44611,"BSTAR":9.2653e-5,"MEAN_MOTION_DOT":1.83e-6,"MEAN_MOTION_DDOT":0},{"OBJECT_NAME":"NOAA 16","OBJECT_ID":"2000-055A","EPOCH":"2026-03-02T19:18:28.178784","MEAN_MOTION":14.1389579,"ECCENTRICITY":0.0009348,"INCLINATION":98.4707,"RA_OF_ASC_NODE":81.6659,"ARG_OF_PERICENTER":244.0292,"MEAN_ANOMALY":115.9919,"EPHEMERIS_TYPE":0,"CLASSIFICATION_TYPE":"U","NORAD_CAT_ID":26536,"ELEMENT_SET_NO":999,"REV_AT_EPOCH":60869,"BSTAR":9.2185e-5,"MEAN_MOTION_DOT":1.34e-6,"MEAN_MOTION_DDOT":0}]
