NOAA 1                  
1 04793U 70106A   26061.72021923 -.00000024  00000+0  11852-3 0  9994
2 04793 101.3528 101.0441 0031668 194.5103 283.7249 12.54049098527341
NOAA 2 (ITOS-D)         
1 06235U 72082A   26061.64228764 -.00000024  00000+0  14224-3 0  9991
2 06235 102.0168  79.0153 0004022  18.7061  90.9417 12.53211578441602
NOAA 3                  
1 06920U 73086A   26061.66604624 -.00000032  00000+0  11072-3 0  9999
2 06920 102.2910  74.5761 0006187 322.2471 149.6114 12.40391537368690
NOAA 4                  
1 07529U 74089A   26061.62241324 -.00000031  00000+0  99313-4 0  9993
2 07529 102.0074  73.2780 0009178  42.1258  69.9652 12.53201519346170
NOAA 5                  
1 09057U 76077A   26061.80941126 -.00000032  00000+0  10661-3 0  9996
2 09057 102.2949  47.2804 0009762 173.1609 250.0199 12.37828186241319
TIROS N                 
1 11060U 78096A   26061.69155023  .00000201  00000+0  11531-3 0  9990
2 11060  98.4642  87.5217 0010346 184.9532 175.1544 14.19334684663644
NOAA 6                  
1 11416U 79057A   26061.65071698  .00000386  00000+0  14970-3 0  9998
2 11416  98.5761  91.8467 0009343 208.2010 151.8670 14.35427276435672
NOAA 7                  
1 12553U 81059A   26061.74503322  .00000054  00000+0  48017-4 0  9992
2 12553  98.8075 129.8545 0010986 207.9195 152.1391 14.17771523309660
NOAA 8                  
1 13923U 83022A   26061.62619034  .00000191  00000+0  91647-4 0  9990
2 13923  98.7373  74.4003 0014280 206.5656 153.4796 14.29763543235841
NOAA 9                  
1 15427U 84123A   26061.66497137  .00000138  00000+0  91673-4 0  9996
2 15427  99.1103  85.7815 0013711 293.0428 175.8550 14.17036131128334
NOAA 10                 
1 16969U 86073A   26061.82417604  .00000200  00000+0  96410-4 0  9997
2 16969  98.6994  55.2309 0011227 311.0664 118.3278 14.29140704 54221
NOAA 11                 
1 19531U 88089A   26061.79017343  .00000067  00000+0  55757-4 0  9996
2 19531  98.6087  11.0636 0010030 241.0552 118.9617 14.15818944932427
NOAA 12                 
1 21263U 91032A   26061.81050116  .00000150  00000+0  79934-4 0  9997
2 21263  98.6144  51.9192 0013315 344.0473  16.0286 14.26714758809794
NOAA 13                 
1 22739U 93050A   26061.85491360  .00000142  00000+0  97607-4 0  9990
2 22739  98.6924   9.7931 0010559  74.5748 285.6591 14.13633628678359
NOAA 14                 
1 23455U 94089A   26061.82138700  .00000086  00000+0  65973-4 0  9990
2 23455  98.5009  36.3630 0010148  35.1436 325.0405 14.14653318608165
NOAA 15                 
1 25338U 98030A   26061.75764414  .00000183  00000+0  92653-4 0  9994
2 25338  98.5168  85.2199 0009220 302.8720  57.1573 14.27109245446118
NOAA 16                 
1 26536U 00055A   26061.80449281  .00000134  00000+0  92185-4 0  9999
2 26536  98.4707  81.6659 0009348 244.0292 115.9919 14.13895790608692
